[{"OBJECT_NAME":"STARLINK-2464","OBJECT_ID":"2021-027AH","EPOCH":"2026-03-10T00:00:02.999808","MEAN_MOTION":15.09205668,"ECCENTRICITY":0.00019372,"INCLINATION":53.0617,"RA_OF_ASC_NODE":150.2193,"ARG_OF_PERICENTER":47.7543,"MEAN_ANOMALY":50.293,"EPHEMERIS_TYPE":0,"CLASSIFICATION_TYPE":"U","NORAD_CAT_ID":48123,"ELEMENT_SET_NO":999,"REV_AT_EPOCH":569,"BSTAR":0.0055776502,"MEAN_MOTION_DOT":0.00090534,"MEAN_MOTION_DDOT":0},{"OBJECT_NAME":"STARLINK-6085","OBJECT_ID":"2023-090Q","EPOCH":"2026-03-09T12:53:56.600160","MEAN_MOTION":15.13089153,"ECCENTRICITY":0.00193829,"INCLINATION":42.9983,"RA_OF_ASC_NODE":264.1938,"ARG_OF_PERICENTER":205.4773,"MEAN_ANOMALY":154.5119,"EPHEMERIS_TYPE":0,"CLASSIFICATION_TYPE":"U","NORAD_CAT_ID":57115,"ELEMENT_SET_NO":999,"REV_AT_EPOCH":15052,"BSTAR":0.0015301514,"MEAN_MOTION_DOT":0.00027564,"MEAN_MOTION_DDOT":0}]
